{
  "type": "FeatureCollection",
  "features": [
    {
      "type": "Feature",
      "properties": {
        "norad_id": 29780,
        "name": "FENGYUN 1C DEB",
        "group": "fengyun-1c-debris",
        "lat": -57.036380031878586,
        "lon": -83.90571278102992,
        "alt_km": 855.469458146531,
        "timestamp": "2025-12-06T20:37:56.343050+00:00",
        "meta_object_name": "FENGYUN 1C DEB",
        "meta_object_id": "1999-025BW",
        "meta_epoch": "2025-12-06T12:27:30.121632",
        "meta_mean_motion": 14.20973868,
        "meta_eccentricity": 0.00400214,
        "meta_inclination": 99.2778,
        "meta_ra_of_asc_node": 261.1374,
        "meta_arg_of_pericenter": 146.3833,
        "meta_mean_anomaly": 213.9893,
        "meta_ephemeris_type": 0,
        "meta_classification_type": "U",
        "meta_norad_cat_id": 29780,
        "meta_element_set_no": 999,
        "meta_rev_at_epoch": 96990,
        "meta_bstar": 0.0028237791,
        "meta_mean_motion_dot": 6.124e-05,
        "meta_mean_motion_ddot": 0,
        "tle_line1": "1 29780U 99025BW  25340.51909863  .00006124  00000+0  28238-2 0  9993",
        "tle_line2": "2 29780  99.2778 261.1374 0040021 146.3833 213.9893 14.20973868969905"
      },
      "geometry": {
        "type": "Point",
        "coordinates": [
          -83.90571278102992,
          -57.036380031878586
        ]
      }
    },
    {
      "type": "Feature",
      "properties": {
        "norad_id": 29781,
        "name": "FENGYUN 1C DEB",
        "group": "fengyun-1c-debris",
        "lat": -46.3591123641759,
        "lon": 145.82491803543996,
        "alt_km": 841.1383710798755,
        "timestamp": "2025-12-06T20:37:56.343060+00:00",
        "meta_object_name": "FENGYUN 1C DEB",
        "meta_object_id": "1999-025BX",
        "meta_epoch": "2025-12-06T11:44:05.855424",
        "meta_mean_motion": 14.05208653,
        "meta_eccentricity": 0.00716047,
        "meta_inclination": 98.8095,
        "meta_ra_of_asc_node": 334.8234,
        "meta_arg_of_pericenter": 190.607,
        "meta_mean_anomaly": 321.5345,
        "meta_ephemeris_type": 0,
        "meta_classification_type": "U",
        "meta_norad_cat_id": 29781,
        "meta_element_set_no": 999,
        "meta_rev_at_epoch": 96555,
        "meta_bstar": 0.00093201388,
        "meta_mean_motion_dot": 1.498e-05,
        "meta_mean_motion_ddot": 0,
        "tle_line1": "1 29781U 99025BX  25340.48895666  .00001498  00000+0  93201-3 0  9997",
        "tle_line2": "2 29781  98.8095 334.8234 0071604 190.6070 321.5345 14.05208653965553"
      },
      "geometry": {
        "type": "Point",
        "coordinates": [
          145.82491803543996,
          -46.3591123641759
        ]
      }
    },
    {
      "type": "Feature",
      "properties": {
        "norad_id": 29782,
        "name": "FENGYUN 1C DEB",
        "group": "fengyun-1c-debris",
        "lat": 51.745942454188565,
        "lon": -133.89799079260698,
        "alt_km": 850.0660701013358,
        "timestamp": "2025-12-06T20:37:56.343072+00:00",
        "meta_object_name": "FENGYUN 1C DEB",
        "meta_object_id": "1999-025BY",
        "meta_epoch": "2025-12-06T15:32:53.288736",
        "meta_mean_motion": 14.11618872,
        "meta_eccentricity": 0.00551806,
        "meta_inclination": 99.1003,
        "meta_ra_of_asc_node": 34.1581,
        "meta_arg_of_pericenter": 219.7326,
        "meta_mean_anomaly": 272.206,
        "meta_ephemeris_type": 0,
        "meta_classification_type": "U",
        "meta_norad_cat_id": 29782,
        "meta_element_set_no": 999,
        "meta_rev_at_epoch": 96585,
        "meta_bstar": 0.0023413703,
        "meta_mean_motion_dot": 4.273e-05,
        "meta_mean_motion_ddot": 0,
        "tle_line1": "1 29782U 99025BY  25340.64783899  .00004273  00000+0  23414-2 0  9992",
        "tle_line2": "2 29782  99.1003  34.1581 0055180 219.7326 272.2060 14.11618872965854"
      },
      "geometry": {
        "type": "Point",
        "coordinates": [
          -133.89799079260698,
          51.745942454188565
        ]
      }
    },
    {
      "type": "Feature",
      "properties": {
        "norad_id": 29784,
        "name": "FENGYUN 1C DEB",
        "group": "fengyun-1c-debris",
        "lat": -58.745174814636854,
        "lon": 64.44883676856676,
        "alt_km": 785.5341763419656,
        "timestamp": "2025-12-06T20:37:56.343084+00:00",
        "meta_object_name": "FENGYUN 1C DEB",
        "meta_object_id": "1999-025CA",
        "meta_epoch": "2025-12-06T13:37:44.241888",
        "meta_mean_motion": 14.30555085,
        "meta_eccentricity": 0.00597558,
        "meta_inclination": 98.9449,
        "meta_ra_of_asc_node": 259.1894,
        "meta_arg_of_pericenter": 315.5916,
        "meta_mean_anomaly": 222.9775,
        "meta_ephemeris_type": 0,
        "meta_classification_type": "U",
        "meta_norad_cat_id": 29784,
        "meta_element_set_no": 999,
        "meta_rev_at_epoch": 98271,
        "meta_bstar": 0.0011298132,
        "meta_mean_motion_dot": 2.958e-05,
        "meta_mean_motion_ddot": 0,
        "tle_line1": "1 29784U 99025CA  25340.56787317  .00002958  00000+0  11298-2 0  9999",
        "tle_line2": "2 29784  98.9449 259.1894 0059755 315.5916 222.9775 14.30555085982711"
      },
      "geometry": {
        "type": "Point",
        "coordinates": [
          64.44883676856676,
          -58.745174814636854
        ]
      }
    },
    {
      "type": "Feature",
      "properties": {
        "norad_id": 29786,
        "name": "FENGYUN 1C DEB",
        "group": "fengyun-1c-debris",
        "lat": -80.54780121420916,
        "lon": 65.710530385525,
        "alt_km": 830.9587167992095,
        "timestamp": "2025-12-06T20:37:56.343095+00:00",
        "meta_object_name": "FENGYUN 1C DEB",
        "meta_object_id": "1999-025CC",
        "meta_epoch": "2025-12-06T14:49:25.135392",
        "meta_mean_motion": 14.09078679,
        "meta_eccentricity": 0.00772067,
        "meta_inclination": 98.736,
        "meta_ra_of_asc_node": 358.0214,
        "meta_arg_of_pericenter": 320.5445,
        "meta_mean_anomaly": 166.6637,
        "meta_ephemeris_type": 0,
        "meta_classification_type": "U",
        "meta_norad_cat_id": 29786,
        "meta_element_set_no": 999,
        "meta_rev_at_epoch": 97074,
        "meta_bstar": 0.00027154798,
        "meta_mean_motion_dot": 4.41e-06,
        "meta_mean_motion_ddot": 0,
        "tle_line1": "1 29786U 99025CC  25340.61765203  .00000441  00000+0  27155-3 0  9992",
        "tle_line2": "2 29786  98.7360 358.0214 0077206 320.5445 166.6637 14.09078679970748"
      },
      "geometry": {
        "type": "Point",
        "coordinates": [
          65.710530385525,
          -80.54780121420916
        ]
      }
    },
    {
      "type": "Feature",
      "properties": {
        "norad_id": 29788,
        "name": "FENGYUN 1C DEB",
        "group": "fengyun-1c-debris",
        "lat": -31.896825717922923,
        "lon": -133.05299568128837,
        "alt_km": 780.8322460784866,
        "timestamp": "2025-12-06T20:37:56.343106+00:00",
        "meta_object_name": "FENGYUN 1C DEB",
        "meta_object_id": "1999-025CE",
        "meta_epoch": "2025-12-06T11:18:14.201280",
        "meta_mean_motion": 14.25900165,
        "meta_eccentricity": 0.00429317,
        "meta_inclination": 98.7848,
        "meta_ra_of_asc_node": 52.0802,
        "meta_arg_of_pericenter": 206.6519,
        "meta_mean_anomaly": 171.4321,
        "meta_ephemeris_type": 0,
        "meta_classification_type": "U",
        "meta_norad_cat_id": 29788,
        "meta_element_set_no": 999,
        "meta_rev_at_epoch": 97266,
        "meta_bstar": 0.0029859097,
        "meta_mean_motion_dot": 7.142e-05,
        "meta_mean_motion_ddot": 0,
        "tle_line1": "1 29788U 99025CE  25340.47099770  .00007142  00000+0  29859-2 0  9994",
        "tle_line2": "2 29788  98.7848  52.0802 0042931 206.6519 171.4321 14.25900165972667"
      },
      "geometry": {
        "type": "Point",
        "coordinates": [
          -133.05299568128837,
          -31.896825717922923
        ]
      }
    },
    {
      "type": "Feature",
      "properties": {
        "norad_id": 29789,
        "name": "FENGYUN 1C DEB",
        "group": "fengyun-1c-debris",
        "lat": 72.87801580987953,
        "lon": 131.16790024853293,
        "alt_km": 1222.118805392688,
        "timestamp": "2025-12-06T20:37:56.343116+00:00",
        "meta_object_name": "FENGYUN 1C DEB",
        "meta_object_id": "1999-025CF",
        "meta_epoch": "2025-12-05T10:52:30.940032",
        "meta_mean_motion": 13.54214224,
        "meta_eccentricity": 0.02983807,
        "meta_inclination": 99.452,
        "meta_ra_of_asc_node": 162.5558,
        "meta_arg_of_pericenter": 297.1839,
        "meta_mean_anomaly": 122.7571,
        "meta_ephemeris_type": 0,
        "meta_classification_type": "U",
        "meta_norad_cat_id": 29789,
        "meta_element_set_no": 999,
        "meta_rev_at_epoch": 92889,
        "meta_bstar": 0.0021158118,
        "meta_mean_motion_dot": 1.866e-05,
        "meta_mean_motion_ddot": 0,
        "tle_line1": "1 29789U 99025CF  25339.45313588  .00001866  00000+0  21158-2 0  9998",
        "tle_line2": "2 29789  99.4520 162.5558 0298380 297.1839 122.7571 13.54214224928896"
      },
      "geometry": {
        "type": "Point",
        "coordinates": [
          131.16790024853293,
          72.87801580987953
        ]
      }
    }
  ]
}